{"type": "FeatureCollection", "features": [{"type": "Feature", "properties": {"norad_id": 24946, "name": "IRIDIUM 33", "group": "iridium-33-debris", "lat": 17.140422121033758, "lon": 72.62846807102858, "alt_km": 779.2683487572494, "timestamp": "2025-12-04T21:36:16.256720+00:00", "meta": {"OBJECT_NAME": "IRIDIUM 33", "OBJECT_ID": "1997-051C", "EPOCH": "2025-12-04T14:49:50.308896", "MEAN_MOTION": 14.3502844, "ECCENTRICITY": 0.00062218, "INCLINATION": 86.3872, "RA_OF_ASC_NODE": 71.6304, "ARG_OF_PERICENTER": 231.548, "MEAN_ANOMALY": 128.5158, "EPHEMERIS_TYPE": 0, "CLASSIFICATION_TYPE": "U", "NORAD_CAT_ID": 24946, "ELEMENT_SET_NO": 999, "REV_AT_EPOCH": 47718, "BSTAR": 0.00024543233, "MEAN_MOTION_DOT": 7.18e-06, "MEAN_MOTION_DDOT": 0}, "tle": {"line1": "1 24946U 97051C   25338.61794339  .00000718  00000+0  24543-3 0  9996", "line2": "2 24946  86.3872  71.6304 0006221 231.5480 128.5158 14.35028440477184"}}, "geometry": {"type": "Point", "coordinates": [72.62846807102858, 17.140422121033758]}}, {"type": "Feature", "properties": {"norad_id": 33773, "name": "IRIDIUM 33 DEB", "group": "iridium-33-debris", "lat": 76.7455722860698, "lon": -131.5847226641034, "alt_km": 737.5491157810902, "timestamp": "2025-12-04T21:36:16.256751+00:00", "meta": {"OBJECT_NAME": "IRIDIUM 33 DEB", "OBJECT_ID": "1997-051L", "EPOCH": "2025-12-04T12:48:34.985664", "MEAN_MOTION": 14.43229151, "ECCENTRICITY": 0.00116112, "INCLINATION": 86.4014, "RA_OF_ASC_NODE": 64.0662, "ARG_OF_PERICENTER": 171.6171, "MEAN_ANOMALY": 188.5226, "EPHEMERIS_TYPE": 0, "CLASSIFICATION_TYPE": "U", "NORAD_CAT_ID": 33773, "ELEMENT_SET_NO": 999, "REV_AT_EPOCH": 88229, "BSTAR": 0.00065248853, "MEAN_MOTION_DOT": 2.215e-05, "MEAN_MOTION_DDOT": 0}, "tle": {"line1": "1 33773U 97051L   25338.53373826  .00002215  00000+0  65249-3 0  9991", "line2": "2 33773  86.4014  64.0662 0011611 171.6171 188.5226 14.43229151882299"}}, "geometry": {"type": "Point", "coordinates": [-131.5847226641034, 76.7455722860698]}}, {"type": "Feature", "properties": {"norad_id": 33775, "name": "IRIDIUM 33 DEB", "group": "iridium-33-debris", "lat": -56.78151547939216, "lon": -121.52819656564391, "alt_km": 755.7644753004661, "timestamp": "2025-12-04T21:36:16.256766+00:00", "meta": {"OBJECT_NAME": "IRIDIUM 33 DEB", "OBJECT_ID": "1997-051N", "EPOCH": "2025-12-04T16:04:16.698144", "MEAN_MOTION": 14.41441459, "ECCENTRICITY": 0.00133541, "INCLINATION": 86.3643, "RA_OF_ASC_NODE": 52.9983, "ARG_OF_PERICENTER": 180.2166, "MEAN_ANOMALY": 300.9326, "EPHEMERIS_TYPE": 0, "CLASSIFICATION_TYPE": "U", "NORAD_CAT_ID": 33775, "ELEMENT_SET_NO": 999, "REV_AT_EPOCH": 88024, "BSTAR": 0.0006563526, "MEAN_MOTION_DOT": 2.149e-05, "MEAN_MOTION_DDOT": 0}, "tle": {"line1": "1 33775U 97051N   25338.66963771  .00002149  00000+0  65635-3 0  9996", "line2": "2 33775  86.3643  52.9983 0013354 180.2166 300.9326 14.41441459880245"}}, "geometry": {"type": "Point", "coordinates": [-121.52819656564391, -56.78151547939216]}}, {"type": "Feature", "properties": {"norad_id": 33776, "name": "IRIDIUM 33 DEB", "group": "iridium-33-debris", "lat": -17.560292101064043, "lon": -94.79188608951883, "alt_km": 760.4073261625654, "timestamp": "2025-12-04T21:36:16.256779+00:00", "meta": {"OBJECT_NAME": "IRIDIUM 33 DEB", "OBJECT_ID": "1997-051P", "EPOCH": "2025-12-04T14:03:40.177152", "MEAN_MOTION": 14.38210253, "ECCENTRICITY": 0.00134685, "INCLINATION": 86.4037, "RA_OF_ASC_NODE": 84.1997, "ARG_OF_PERICENTER": 218.542, "MEAN_ANOMALY": 152.6812, "EPHEMERIS_TYPE": 0, "CLASSIFICATION_TYPE": "U", "NORAD_CAT_ID": 33776, "ELEMENT_SET_NO": 999, "REV_AT_EPOCH": 87965, "BSTAR": 0.0005727539, "MEAN_MOTION_DOT": 1.76e-05, "MEAN_MOTION_DDOT": 0}, "tle": {"line1": "1 33776U 97051P   25338.58588168  .00001760  00000+0  57275-3 0  9990", "line2": "2 33776  86.4037  84.1997 0013468 218.5420 152.6812 14.38210253879657"}}, "geometry": {"type": "Point", "coordinates": [-94.79188608951883, -17.560292101064043]}}, {"type": "Feature", "properties": {"norad_id": 33777, "name": "IRIDIUM 33 DEB", "group": "iridium-33-debris", "lat": -36.37753077639616, "lon": -138.71318756470654, "alt_km": 712.8467433112928, "timestamp": "2025-12-04T21:36:16.256796+00:00", "meta": {"OBJECT_NAME": "IRIDIUM 33 DEB", "OBJECT_ID": "1997-051Q", "EPOCH": "2025-12-04T15:39:47.047104", "MEAN_MOTION": 14.55518436, "ECCENTRICITY": 0.00051102, "INCLINATION": 86.3797, "RA_OF_ASC_NODE": 38.7212, "ARG_OF_PERICENTER": 287.0906, "MEAN_ANOMALY": 72.9742, "EPHEMERIS_TYPE": 0, "CLASSIFICATION_TYPE": "U", "NORAD_CAT_ID": 33777, "ELEMENT_SET_NO": 999, "REV_AT_EPOCH": 88416, "BSTAR": 0.0022811438, "MEAN_MOTION_DOT": 9.958e-05, "MEAN_MOTION_DDOT": 0}, "tle": {"line1": "1 33777U 97051Q   25338.65262786  .00009958  00000+0  22811-2 0  9998", "line2": "2 33777  86.3797  38.7212 0005110 287.0906  72.9742 14.55518436884161"}}, "geometry": {"type": "Point", "coordinates": [-138.71318756470654, -36.37753077639616]}}, {"type": "Feature", "properties": {"norad_id": 33850, "name": "IRIDIUM 33 DEB", "group": "iridium-33-debris", "lat": -18.633236900005222, "lon": -145.21366853740344, "alt_km": 748.7090225636102, "timestamp": "2025-12-04T21:36:16.256808+00:00", "meta": {"OBJECT_NAME": "IRIDIUM 33 DEB", "OBJECT_ID": "1997-051T", "EPOCH": "2025-12-04T16:15:08.415936", "MEAN_MOTION": 14.42120572, "ECCENTRICITY": 0.00114103, "INCLINATION": 86.3427, "RA_OF_ASC_NODE": 33.6464, "ARG_OF_PERICENTER": 186.1816, "MEAN_ANOMALY": 295.3072, "EPHEMERIS_TYPE": 0, "CLASSIFICATION_TYPE": "U", "NORAD_CAT_ID": 33850, "ELEMENT_SET_NO": 999, "REV_AT_EPOCH": 88036, "BSTAR": 0.0008695612, "MEAN_MOTION_DOT": 2.88e-05, "MEAN_MOTION_DDOT": 0}, "tle": {"line1": "1 33850U 97051T   25338.67718074  .00002880  00000+0  86956-3 0  9996", "line2": "2 33850  86.3427  33.6464 0011410 186.1816 295.3072 14.42120572880366"}}, "geometry": {"type": "Point", "coordinates": [-145.21366853740344, -18.633236900005222]}}, {"type": "Feature", "properties": {"norad_id": 33853, "name": "IRIDIUM 33 DEB", "group": "iridium-33-debris", "lat": -1.38278328072483, "lon": -6.8466546428962705, "alt_km": 920.0701668927704, "timestamp": "2025-12-04T21:36:16.256823+00:00", "meta": {"OBJECT_NAME": "IRIDIUM 33 DEB", "OBJECT_ID": "1997-051W", "EPOCH": "2025-12-04T01:16:34.217184", "MEAN_MOTION": 13.98972091, "ECCENTRICITY": 0.02067962, "INCLINATION": 86.0003, "RA_OF_ASC_NODE": 353.6212, "ARG_OF_PERICENTER": 262.6777, "MEAN_ANOMALY": 150.4676, "EPHEMERIS_TYPE": 0, "CLASSIFICATION_TYPE": "U", "NORAD_CAT_ID": 33853, "ELEMENT_SET_NO": 999, "REV_AT_EPOCH": 85224, "BSTAR": 0.0041696417, "MEAN_MOTION_DOT": 7.249e-05, "MEAN_MOTION_DDOT": 0}, "tle": {"line1": "1 33853U 97051W   25338.05317381  .00007249  00000+0  41696-2 0  9992", "line2": "2 33853  86.0003 353.6212 0206796 262.6777 150.4676 13.98972091852249"}}, "geometry": {"type": "Point", "coordinates": [-6.8466546428962705, -1.38278328072483]}}, {"type": "Feature", "properties": {"norad_id": 33860, "name": "IRIDIUM 33 DEB", "group": "iridium-33-debris", "lat": 36.23160977846222, "lon": -151.94742413794387, "alt_km": 670.5569509610332, "timestamp": "2025-12-04T21:36:16.256835+00:00", "meta": {"OBJECT_NAME": "IRIDIUM 33 DEB", "OBJECT_ID": "1997-051AD", "EPOCH": "2025-12-04T15:05:54.621024", "MEAN_MOTION": 14.6720223, "ECCENTRICITY": 0.00084703, "INCLINATION": 86.3845, "RA_OF_ASC_NODE": 30.8279, "ARG_OF_PERICENTER": 24.4738, "MEAN_ANOMALY": 128.1182, "EPHEMERIS_TYPE": 0, "CLASSIFICATION_TYPE": "U", "NORAD_CAT_ID": 33860, "ELEMENT_SET_NO": 999, "REV_AT_EPOCH": 88603, "BSTAR": 0.0030618799, "MEAN_MOTION_DOT": 0.00017288, "MEAN_MOTION_DDOT": 0}, "tle": {"line1": "1 33860U 97051AD  25338.62910441  .00017288  00000+0  30619-2 0  9996", "line2": "2 33860  86.3845  30.8279 0008470  24.4738 128.1182 14.67202230886037"}}, "geometry": {"type": "Point", "coordinates": [-151.94742413794387, 36.23160977846222]}}, {"type": "Feature", "properties": {"norad_id": 33862, "name": "IRIDIUM 33 DEB", "group": "iridium-33-debris", "lat": 59.52214553848022, "lon": -145.13680806293777, "alt_km": 623.1981986604724, "timestamp": "2025-12-04T21:36:16.256846+00:00", "meta": {"OBJECT_NAME": "IRIDIUM 33 DEB", "OBJECT_ID": "1997-051AF", "EPOCH": "2025-12-04T11:18:33.632640", "MEAN_MOTION": 14.69264317, "ECCENTRICITY": 0.00539696, "INCLINATION": 86.41, "RA_OF_ASC_NODE": 41.1759, "ARG_OF_PERICENTER": 96.7491, "MEAN_ANOMALY": 275.7367, "EPHEMERIS_TYPE": 0, "CLASSIFICATION_TYPE": "U", "NORAD_CAT_ID": 33862, "ELEMENT_SET_NO": 999, "REV_AT_EPOCH": 88702, "BSTAR": 0.0039010387, "MEAN_MOTION_DOT": 0.00023596, "MEAN_MOTION_DDOT": 0}, "tle": {"line1": "1 33862U 97051AF  25338.47122260  .00023596  00000+0  39010-2 0  9998", "line2": "2 33862  86.4100  41.1759 0053969  96.7491 275.7367 14.69264317887023"}}, "geometry": {"type": "Point", "coordinates": [-145.13680806293777, 59.52214553848022]}}, {"type": "Feature", "properties": {"norad_id": 33866, "name": "IRIDIUM 33 DEB", "group": "iridium-33-debris", "lat": -11.074863776588055, "lon": 95.62628910403963, "alt_km": 890.0697652831332, "timestamp": "2025-12-04T21:36:16.256857+00:00", "meta": {"OBJECT_NAME": "IRIDIUM 33 DEB", "OBJECT_ID": "1997-051AK", "EPOCH": "2025-12-04T14:58:37.871616", "MEAN_MOTION": 14.25229782, "ECCENTRICITY": 0.01138143, "INCLINATION": 86.3001, "RA_OF_ASC_NODE": 96.4688, "ARG_OF_PERICENTER": 187.2582, "MEAN_ANOMALY": 185.4361, "EPHEMERIS_TYPE": 0, "CLASSIFICATION_TYPE": "U", "NORAD_CAT_ID": 33866, "ELEMENT_SET_NO": 999, "REV_AT_EPOCH": 86695, "BSTAR": 0.0014526222, "MEAN_MOTION_DOT": 3.671e-05, "MEAN_MOTION_DDOT": 0}, "tle": {"line1": "1 33866U 97051AK  25338.62404944  .00003671  00000+0  14526-2 0  9998", "line2": "2 33866  86.3001  96.4688 0113814 187.2582 185.4361 14.25229782866952"}}, "geometry": {"type": "Point", "coordinates": [95.62628910403963, -11.074863776588055]}}]}